[{"OBJECT_NAME":"STARLINK-31388","OBJECT_ID":"2024-076B","EPOCH":"2026-03-09T04:32:35.635776","MEAN_MOTION":15.2758107,"ECCENTRICITY":8.192e-5,"INCLINATION":43.0037,"RA_OF_ASC_NODE":12.0667,"ARG_OF_PERICENTER":304.7804,"MEAN_ANOMALY":55.2971,"EPHEMERIS_TYPE":0,"CLASSIFICATION_TYPE":"U","NORAD_CAT_ID":59565,"ELEMENT_SET_NO":999,"REV_AT_EPOCH":10642,"BSTAR":-0.00010530396,"MEAN_MOTION_DOT":-3.158e-5,"MEAN_MOTION_DDOT":0},{"OBJECT_NAME":"LUR-1","OBJECT_ID":"2024-149AQ","EPOCH":"2026-03-09T19:05:45.284064","MEAN_MOTION":15.28658648,"ECCENTRICITY":0.00027765,"INCLINATION":97.379,"RA_OF_ASC_NODE":148.4255,"ARG_OF_PERICENTER":309.1571,"MEAN_ANOMALY":50.9421,"EPHEMERIS_TYPE":0,"CLASSIFICATION_TYPE":"U","NORAD_CAT_ID":60506,"ELEMENT_SET_NO":999,"REV_AT_EPOCH":8678,"BSTAR":0.0003298462,"MEAN_MOTION_DOT":9.121e-5,"MEAN_MOTION_DDOT":0}]
